CCSDS_OMM_VERS = 2.0
CREATION_DATE  = 
ORIGINATOR     = 

OBJECT_NAME    = STARLINK-36861
OBJECT_ID      = 2026-037C
CENTER_NAME    = EARTH
REF_FRAME      = TEME
TIME_SYSTEM    = UTC
MEAN_ELEMENT_THEORY = SGP/SGP4

EPOCH          = 2026-03-19T06:00:02.000160
MEAN_MOTION    = 15.72415864
ECCENTRICITY   = .00012839
INCLINATION    = 42.9989
RA_OF_ASC_NODE = 140.0688
ARG_OF_PERICENTER = 273.2256
MEAN_ANOMALY   = 122.2587

EPHEMERIS_TYPE = 0
CLASSIFICATION_TYPE = U
NORAD_CAT_ID   = 67934
ELEMENT_SET_NO = 999
REV_AT_EPOCH   = 473
BSTAR          = -.1617383E-1
MEAN_MOTION_DOT = -.196283E-1
MEAN_MOTION_DDOT = 0

CCSDS_OMM_VERS = 2.0
CREATION_DATE  = 
ORIGINATOR     = 

OBJECT_NAME    = STARLINK-36860
OBJECT_ID      = 2026-037D
CENTER_NAME    = EARTH
REF_FRAME      = TEME
TIME_SYSTEM    = UTC
MEAN_ELEMENT_THEORY = SGP/SGP4

EPOCH          = 2026-03-19T06:00:02.000160
MEAN_MOTION    = 15.64894658
ECCENTRICITY   = .00013682
INCLINATION    = 42.9989
RA_OF_ASC_NODE = 140.2733
ARG_OF_PERICENTER = 266.0057
MEAN_ANOMALY   = 47.3955

EPHEMERIS_TYPE = 0
CLASSIFICATION_TYPE = U
NORAD_CAT_ID   = 67935
ELEMENT_SET_NO = 999
REV_AT_EPOCH   = 473
BSTAR          = -.21470747E-1
MEAN_MOTION_DOT = -.1911361E-1
MEAN_MOTION_DDOT = 0

CCSDS_OMM_VERS = 2.0
CREATION_DATE  = 
ORIGINATOR     = 

OBJECT_NAME    = STARLINK-36848
OBJECT_ID      = 2026-037E
CENTER_NAME    = EARTH
REF_FRAME      = TEME
TIME_SYSTEM    = UTC
MEAN_ELEMENT_THEORY = SGP/SGP4

EPOCH          = 2026-03-19T06:00:02.000160
MEAN_MOTION    = 15.62413528
ECCENTRICITY   = .00011902
INCLINATION    = 42.9986
RA_OF_ASC_NODE = 140.3484
ARG_OF_PERICENTER = 264.0179
MEAN_ANOMALY   = 18.7250

EPHEMERIS_TYPE = 0
CLASSIFICATION_TYPE = U
NORAD_CAT_ID   = 67936
ELEMENT_SET_NO = 999
REV_AT_EPOCH   = 473
BSTAR          = -.23635529E-1
MEAN_MOTION_DOT = -.1906321E-1
MEAN_MOTION_DDOT = 0

CCSDS_OMM_VERS = 2.0
CREATION_DATE  = 
ORIGINATOR     = 

OBJECT_NAME    = STARLINK-36370
OBJECT_ID      = 2026-037F
CENTER_NAME    = EARTH
REF_FRAME      = TEME
TIME_SYSTEM    = UTC
MEAN_ELEMENT_THEORY = SGP/SGP4

EPOCH          = 2026-03-19T06:00:02.000160
MEAN_MOTION    = 15.65780710
ECCENTRICITY   = .00013807
INCLINATION    = 42.9990
RA_OF_ASC_NODE = 140.2316
ARG_OF_PERICENTER = 267.0004
MEAN_ANOMALY   = 63.3910

EPHEMERIS_TYPE = 0
CLASSIFICATION_TYPE = U
NORAD_CAT_ID   = 67937
ELEMENT_SET_NO = 999
REV_AT_EPOCH   = 473
BSTAR          = -.20754402E-1
MEAN_MOTION_DOT = -.1914617E-1
MEAN_MOTION_DDOT = 0

CCSDS_OMM_VERS = 2.0
CREATION_DATE  = 
ORIGINATOR     = 

OBJECT_NAME    = STARLINK-36371
OBJECT_ID      = 2026-037G
CENTER_NAME    = EARTH
REF_FRAME      = TEME
TIME_SYSTEM    = UTC
MEAN_ELEMENT_THEORY = SGP/SGP4

EPOCH          = 2026-03-19T06:00:02.000160
MEAN_MOTION    = 15.69675523
ECCENTRICITY   = .00014794
INCLINATION    = 42.9990
RA_OF_ASC_NODE = 140.0883
ARG_OF_PERICENTER = 272.2294
MEAN_ANOMALY   = 114.6016

EPHEMERIS_TYPE = 0
CLASSIFICATION_TYPE = U
NORAD_CAT_ID   = 67938
ELEMENT_SET_NO = 999
REV_AT_EPOCH   = 473
BSTAR          = -.1775232E-1
MEAN_MOTION_DOT = -.1922605E-1
MEAN_MOTION_DDOT = 0

CCSDS_OMM_VERS = 2.0
CREATION_DATE  = 
ORIGINATOR     = 

OBJECT_NAME    = STARLINK-36246
OBJECT_ID      = 2026-037H
CENTER_NAME    = EARTH
REF_FRAME      = TEME
TIME_SYSTEM    = UTC
MEAN_ELEMENT_THEORY = SGP/SGP4

EPOCH          = 2026-03-19T06:00:02.000160
MEAN_MOTION    = 15.63220390
ECCENTRICITY   = .00013196
INCLINATION    = 42.9991
RA_OF_ASC_NODE = 140.2940
ARG_OF_PERICENTER = 264.4873
MEAN_ANOMALY   = 40.1239

EPHEMERIS_TYPE = 0
CLASSIFICATION_TYPE = U
NORAD_CAT_ID   = 67939
ELEMENT_SET_NO = 999
REV_AT_EPOCH   = 464
BSTAR          = -.22933686E-1
MEAN_MOTION_DOT = -.1909471E-1
MEAN_MOTION_DDOT = 0

CCSDS_OMM_VERS = 2.0
CREATION_DATE  = 
ORIGINATOR     = 

OBJECT_NAME    = STARLINK-36907
OBJECT_ID      = 2026-037J
CENTER_NAME    = EARTH
REF_FRAME      = TEME
TIME_SYSTEM    = UTC
MEAN_ELEMENT_THEORY = SGP/SGP4

EPOCH          = 2026-03-19T05:38:15.916416
MEAN_MOTION    = 15.75093882
ECCENTRICITY   = .0001056
INCLINATION    = 42.9979
RA_OF_ASC_NODE = 140.0304
ARG_OF_PERICENTER = 281.2426
MEAN_ANOMALY   = 78.8324

EPHEMERIS_TYPE = 0
CLASSIFICATION_TYPE = U
NORAD_CAT_ID   = 67940
ELEMENT_SET_NO = 999
REV_AT_EPOCH   = 476
BSTAR          = -.54905595E-2
MEAN_MOTION_DOT = -.772416E-2
MEAN_MOTION_DDOT = 0

CCSDS_OMM_VERS = 2.0
CREATION_DATE  = 
ORIGINATOR     = 

OBJECT_NAME    = STARLINK-36927
OBJECT_ID      = 2026-037K
CENTER_NAME    = EARTH
REF_FRAME      = TEME
TIME_SYSTEM    = UTC
MEAN_ELEMENT_THEORY = SGP/SGP4

EPOCH          = 2026-03-19T06:00:02.000160
MEAN_MOTION    = 15.71817883
ECCENTRICITY   = .00014349
INCLINATION    = 42.9993
RA_OF_ASC_NODE = 139.9724
ARG_OF_PERICENTER = 274.6260
MEAN_ANOMALY   = 158.4628

EPHEMERIS_TYPE = 0
CLASSIFICATION_TYPE = U
NORAD_CAT_ID   = 67941
ELEMENT_SET_NO = 999
REV_AT_EPOCH   = 473
BSTAR          = -.16626413E-1
MEAN_MOTION_DOT = -.1966248E-1
MEAN_MOTION_DDOT = 0

CCSDS_OMM_VERS = 2.0
CREATION_DATE  = 
ORIGINATOR     = 

OBJECT_NAME    = STARLINK-36914
OBJECT_ID      = 2026-037L
CENTER_NAME    = EARTH
REF_FRAME      = TEME
TIME_SYSTEM    = UTC
MEAN_ELEMENT_THEORY = SGP/SGP4

EPOCH          = 2026-03-19T04:04:32.597472
MEAN_MOTION    = 15.79631335
ECCENTRICITY   = .00023467
INCLINATION    = 42.9979
RA_OF_ASC_NODE = 140.4020
ARG_OF_PERICENTER = 282.3770
MEAN_ANOMALY   = 77.6838

EPHEMERIS_TYPE = 0
CLASSIFICATION_TYPE = U
NORAD_CAT_ID   = 67942
ELEMENT_SET_NO = 999
REV_AT_EPOCH   = 475
BSTAR          = -.40359874E-2
MEAN_MOTION_DOT = -.702582E-2
MEAN_MOTION_DDOT = 0

CCSDS_OMM_VERS = 2.0
CREATION_DATE  = 
ORIGINATOR     = 

OBJECT_NAME    = STARLINK-36851
OBJECT_ID      = 2026-037M
CENTER_NAME    = EARTH
REF_FRAME      = TEME
TIME_SYSTEM    = UTC
MEAN_ELEMENT_THEORY = SGP/SGP4

EPOCH          = 2026-03-19T06:00:02.000160
MEAN_MOTION    = 15.72805835
ECCENTRICITY   = .00013717
INCLINATION    = 42.9989
RA_OF_ASC_NODE = 139.9841
ARG_OF_PERICENTER = 275.6696
MEAN_ANOMALY   = 152.8788

EPHEMERIS_TYPE = 0
CLASSIFICATION_TYPE = U
NORAD_CAT_ID   = 67943
ELEMENT_SET_NO = 999
REV_AT_EPOCH   = 473
BSTAR          = -.15945867E-1
MEAN_MOTION_DOT = -.1967486E-1
MEAN_MOTION_DDOT = 0

CCSDS_OMM_VERS = 2.0
CREATION_DATE  = 
ORIGINATOR     = 

OBJECT_NAME    = STARLINK-36892
OBJECT_ID      = 2026-037N
CENTER_NAME    = EARTH
REF_FRAME      = TEME
TIME_SYSTEM    = UTC
MEAN_ELEMENT_THEORY = SGP/SGP4

EPOCH          = 2026-03-19T06:00:02.000160
MEAN_MOTION    = 15.73610274
ECCENTRICITY   = .0001382
INCLINATION    = 42.9990
RA_OF_ASC_NODE = 139.9476
ARG_OF_PERICENTER = 278.6541
MEAN_ANOMALY   = 164.5571

EPHEMERIS_TYPE = 0
CLASSIFICATION_TYPE = U
NORAD_CAT_ID   = 67944
ELEMENT_SET_NO = 999
REV_AT_EPOCH   = 473
BSTAR          = -.15401119E-1
MEAN_MOTION_DOT = -.1967775E-1
MEAN_MOTION_DDOT = 0

CCSDS_OMM_VERS = 2.0
CREATION_DATE  = 
ORIGINATOR     = 

OBJECT_NAME    = STARLINK-36908
OBJECT_ID      = 2026-037P
CENTER_NAME    = EARTH
REF_FRAME      = TEME
TIME_SYSTEM    = UTC
MEAN_ELEMENT_THEORY = SGP/SGP4

EPOCH          = 2026-03-19T05:35:17.827872
MEAN_MOTION    = 15.74914713
ECCENTRICITY   = .00017963
INCLINATION    = 42.9977
RA_OF_ASC_NODE = 140.0136
ARG_OF_PERICENTER = 318.1801
MEAN_ANOMALY   = 41.8931

EPHEMERIS_TYPE = 0
CLASSIFICATION_TYPE = U
NORAD_CAT_ID   = 67945
ELEMENT_SET_NO = 999
REV_AT_EPOCH   = 476
BSTAR          = -.58437159E-2
MEAN_MOTION_DOT = -.811987E-2
MEAN_MOTION_DDOT = 0

