STARLINK-36861          
1 67934U 26037C   26078.25002315 -.01962830  00000+0 -16174-1 0  9998
2 67934  42.9989 140.0688 0001283 273.2256 122.2587 15.72415864  4734
STARLINK-36860          
1 67935U 26037D   26078.25002315 -.01911361  00000+0 -21471-1 0  9998
2 67935  42.9989 140.2733 0001368 266.0057  47.3955 15.64894658  4730
STARLINK-36848          
1 67936U 26037E   26078.25002315 -.01906321  00000+0 -23636-1 0  9994
2 67936  42.9986 140.3484 0001190 264.0179  18.7250 15.62413528  4739
STARLINK-36370          
1 67937U 26037F   26078.25002315 -.01914617  00000+0 -20754-1 0  9990
2 67937  42.9990 140.2316 0001380 267.0004  63.3910 15.65780710  4731
STARLINK-36371          
1 67938U 26037G   26078.25002315 -.01922605  00000+0 -17752-1 0  9991
2 67938  42.9990 140.0883 0001479 272.2294 114.6016 15.69675523  4733
STARLINK-36246          
1 67939U 26037H   26078.25002315 -.01909471  00000+0 -22934-1 0  9996
2 67939  42.9991 140.2940 0001319 264.4873  40.1239 15.63220390  4642
STARLINK-36907          
1 67940U 26037J   26078.23490644 -.00772416  00000+0 -54906-2 0  9993
2 67940  42.9979 140.0304 0001056 281.2426  78.8324 15.75093882  4764
STARLINK-36927          
1 67941U 26037K   26078.25002315 -.01966248  00000+0 -16626-1 0  9995
2 67941  42.9993 139.9724 0001434 274.6260 158.4628 15.71817883  4736
STARLINK-36914          
1 67942U 26037L   26078.16982173 -.00702582  00000+0 -40360-2 0  9996
2 67942  42.9979 140.4020 0002346 282.3770  77.6838 15.79631335  4753
STARLINK-36851          
1 67943U 26037M   26078.25002315 -.01967486  00000+0 -15946-1 0  9996
2 67943  42.9989 139.9841 0001371 275.6696 152.8788 15.72805835  4737
STARLINK-36892          
1 67944U 26037N   26078.25002315 -.01967775  00000+0 -15401-1 0  9994
2 67944  42.9990 139.9476 0001382 278.6541 164.5571 15.73610274  4730
STARLINK-36908          
1 67945U 26037P   26078.23284523 -.00811987  00000+0 -58437-2 0  9995
2 67945  42.9977 140.0136 0001796 318.1801  41.8931 15.74914713  4766
